{"fetched_at":"2026-03-29T02:12:04Z","count":15717,"tles":[{"name":"STARLINK-36607","line1":"1 67620U 26020D   26087.56058622  .00038039  00000+0  13836-2 0  9993","line2":"2 67620  42.9987  32.8514 0000960  30.7324 329.3584 15.27606753  9004","category":"Starlink"}]}